#dP2021  8 12 12  0  0.00000000      96 __u+U ITR00 EXT  IAC
## 2170 388800.00000000   900.00000000 59438 0.5000000000000
+  115   C06C07C08C09C10C11C12C13C16C19C20C21C22C23C24C25C26
+        C27C28C29C30C32C33C34C35C36C37C38C39C40C41C42C43C44
+        C45C46E01E02E03E04E05E07E08E09E11E12E13E14E15E18E19
+        E21E24E25E26E27E30E31E33E36G01G02G03G04G05G06G07G08
+        G09G10G12G13G14G15G16G17G18G19G20G21G22G23G24G25G26
+        G27G28G29G30G31G32J01J02J03R01R02R03R04R05R07R08R09
+        R11R12R13R14R15R16R17R18R19R20R21R22R24  0  0  0  0
++        10 10  9 10 10  9  8  9 10  9  9  7 10 10  9  8  8
++         8  8  8  9  8  9  9  9  7  7  9 10  9  8  9  9  8
++         8  9  9  8  7  7  7  8  8  8  8  7  8  8  8 10  8
++         9  7  6  8  8  9  9  7  7  8  6  8  9  8  9  8  7
++         8  9  7  8  6  8  7  8  7  7  7  7  8  8  7  8  7
++         7  7  8  8  7  7 12  8 10  7  9  8 10  9  8  7 10
++         8  8  8  8  7  8  9  8  9  9  9  8  8  0  0  0  0
%c M  cc GPS ccc cccc cccc cccc cccc ccccc ccccc ccccc ccccc
%c cc cc ccc ccc cccc cccc cccc cccc ccccc ccccc ccccc ccccc
%f  0.0000000  0.000000000  0.00000000000  0.000000000000000
%f  0.0000000  0.000000000  0.00000000000  0.000000000000000
%i    0    0    0    0      0      0      0      0         0
%i    0    0    0    0      0      0      0      0         0
/* IAC                                ULTRA-RAPID PREDICTION
/* S/V CLOCKS ARE ALIGNED TO GNSS TIME                      
/* G:C1WC2W R:C1PC2P E:C1XC5X C:C2IC6I J:C1CC2S             
/* PCV:IGS14_2163 OL/AL:FES2004  NONE     YN ORB:CoN CLK:CoN
*  2021 08 12 20 45  0.00000000
PC06  -5882.464413  39991.344557 -11654.984994    749.397063
PC07 -13446.622369  23410.687042  32638.586746     17.505975
PC08 -25631.931158  29603.833004 -16002.863867   -920.035007
PC09   -385.816101  41875.290679  -1755.414268    -22.113632
PC10   1185.816102  28028.574199  31809.386791     -9.271214
PC11  10376.142036  20047.902958 -16381.568753    513.100081
PC12    -93.884088  27921.260194   -143.688269    784.184085
PC13 -12061.628617  30223.368937 -26872.214353    371.207841
PC16  -7317.081222  38726.403325 -14571.007159   -864.446344
PC19 -25081.853704 -11869.316484  -2833.338964    944.513888
PC20 -14980.507963 -19205.961170  13599.513205   -821.349111
PC21  -4638.699454  15442.192848 -22765.748024   -940.507031
PC22 -20956.756971   2612.785358 -18227.407239   -950.502027
PC23  25132.024079 -11618.598988   3505.597820   -962.134891
PC24   3698.009403  16347.685743  22316.699307   -964.276492
PC25  21124.581117   2233.926142  18087.232820   -871.319853
PC26 -13709.190929  19992.135038  13850.922176    865.330803
PC27   6231.246393 -25785.036842  -8703.189025    579.850981
PC28  14728.598965 -10599.284555 -21198.656982    -39.299802
PC29 -14988.444282 -10201.196313  21202.607988    432.454746
PC30  -6533.535161 -25824.083731   8336.185118    477.225895
PC32   4616.913784 -15457.862858  22779.719329   -930.778624
PC33  25159.442338  11776.416703   2775.419273   -956.241920
PC34   6992.318477  25438.309457  -9082.981358   -606.522437
PC35 -14518.473139  10667.049415  21294.633132   -142.702755
PC36 -20839.834421  -3007.787261 -18280.686168   -742.771613
PC37  14972.785728 -19539.232966 -13103.725204   -861.643129
PC38 -22715.059733  31150.246490 -17242.257696    168.149145
PC39  -8867.075585  35974.691814 -19966.048181     32.720575
PC40  -2456.620848  23489.279092  34989.632072    189.678788
PC41  21194.756380  -2447.814055  18031.777169   -962.031532
PC42  14334.276496  19297.609033 -14150.059614   -932.043463
PC43  14928.433697  10857.026300 -20934.132038   -864.901311
PC44  -5498.551058  25880.513705   8817.150851    337.721746
PC45 -25072.061277  11814.190106  -3322.662616    518.875855
PC46  -4892.264458 -15653.036719 -22561.345484    135.126280
PE01  17405.813650 -13877.519736 -19500.581596  -1170.287074
PE02 -17273.446560  13937.038952  19596.074339    239.462566
PE03  -6697.146695  18527.531967 -22097.776849   -462.991249
PE04  -9467.534755 -26581.158930   8942.025097   -833.623469
PE05 -19219.263336   -564.142621 -22501.079991   -257.761708
PE07  20397.553250  19096.609286   9797.141260   -573.007434
PE08   9921.476609  26523.523147  -8643.369747   5955.141059
PE09 -20469.015351 -18884.662108  -9998.152423   5568.314080
PE11 -12756.873653 -10357.488929  24606.242709   5586.858167
PE12   2066.233781 -25483.901580  14917.043274   5063.614414
PE13  12452.091928  10747.105531 -24612.026875    420.195204
PE14  -3764.785685 -25706.403062  -5874.958833  -1533.275277
PE15  -2001.207803  25458.278377 -14971.140365    798.308631
PE18  15650.624144  25081.362038  -8565.932208  -1681.521999
PE19   8474.357148 -16588.094646  23009.499536    350.612690
PE21  29036.686285  -4024.401592  -4108.831573   -681.629930
PE24 -23747.178954  -9311.378485 -15036.517712  -1059.323973
PE25 -29079.262508   3903.673906   3927.519084   -543.046901
PE26  19756.671118 -11018.995418 -19088.455815   1469.061311
PE27  24416.662459   8651.621217  14330.730495    -96.503760
PE30   4138.636000  16364.981566  24313.745506   2707.158192
PE31  -5489.750449 -16132.437326 -24187.456519   -484.339395
PE33  15240.766781 -25138.187392  -3462.663501   -466.366545
PE36 -19533.533097  10246.191152  19735.657295   -247.511558
PG01 -13382.273511  22274.785203  -4801.780076    599.550285
PG02  18936.389755  -9172.286411 -15599.647913   -625.903772
PG03 -11177.530224  12718.603307 -20536.907850   -251.975673
PG04  -3268.649981  21490.532349 -15212.926254   -203.817716
PG05  22028.065474  -7143.520252  12991.196115    -50.921004
PG06  14987.809658   3963.472316 -21516.670296     54.983758
PG07   -910.271640  20651.330217  16761.557583    223.591807
PG08 -10427.520743  12334.502786  21013.078337    -32.403004
PG09   6580.295404  25106.277353  -5650.517515   -358.616081
PG10 -19978.765875 -11763.569457  13323.665730   -181.197319
PG12  12118.164240 -11882.934785 -20645.873655    -82.005053
PG13  14482.822029  -3834.808243  21793.288045    170.473127
PG14  19713.344180  12538.139637  12676.761084     25.270829
PG15   9378.322739 -13949.412709  20116.172075   -128.836931
PG16 -25320.835067    265.648195   8504.418824   -372.663184
PG17  12845.169377  21858.440339  -7472.836177    488.384228
PG18   -345.875251 -19432.337139  18050.362892    333.342718
PG19  15528.754643  14978.449635 -15868.547530     38.781415
PG20  26317.234954  -1627.281906   1574.768385    519.685992
PG21 -16985.620026  19571.845759   5019.649282    136.849957
PG22 -18041.132507  11085.091244 -15734.347190   -539.870561
PG23  -8933.051752 -14907.314120  20079.596521     71.683877
PG24  14790.620659 -21780.295799    543.327964    206.320837
PG25   -337.264220 -15475.002117 -21860.535908    190.042367
PG26 -26115.663441  -4589.332414  -3275.728018    121.879192
PG27 -15363.898505    987.501192  21507.544404   -177.340298
PG28  23003.697215  10791.858449   7930.067003    521.014636
PG29  -3098.710022 -25258.444538  -7538.208244   -395.218495
PG30   9732.454959  12788.626634  21191.566797   -461.498354
PG31 -16858.856271  -2282.702690 -20593.646035   -133.921763
PG32 -15759.651647 -18869.501471 -10157.853041      8.147869
PJ01 -22220.229239  18604.803860 -26049.203700   -438.072693
PJ02 -31293.228839  24031.575250  19735.437327     -1.508715
PJ03 -27565.357936  26817.378957  22403.812722     -0.765724
PR01  10210.557962  -5760.980860  22655.176718     83.746075
PR02  -8057.628527 -17385.752016  16909.586926    489.448698
PR03 -19152.396968 -16858.725481   1085.226297     41.132112
PR04 -19234.032620  -7006.399253 -15199.051783     99.882083
PR05  -8711.608558   6713.449524 -23007.127680     77.030125
PR07  19361.150269  16568.538830   -277.409131    -41.692788
PR08  19263.892997   6791.800174  15317.610894    -60.348155
PR09  -3433.365615  12797.217316  21804.348855      7.754456
PR11  23740.636496  -5004.675653   7915.134327     46.288665
PR12  19710.282188 -12451.715826 -10299.773002    253.124274
PR13   4459.988342 -12757.726128 -21642.145441    -59.082994
PR14 -14297.909971  -5266.716294 -20432.085914     67.576053
PR15 -23928.312314   4995.368805  -7254.729241    102.116662
PR16 -18708.073031  13267.774501  11283.657004    -19.473088
PR17  -5944.204988 -15754.154347  19144.314428    449.247984
PR18 -10830.213245   1596.973509  23044.095423     86.714377
PR19 -10730.992632  17271.946054  15402.887474   -155.170675
PR20  -3694.272156  24928.387250  -3834.663017    -54.043032
PR21   6335.024460  14706.424905 -19874.349794   -231.044564
PR22  10955.749231  -2791.063466 -22895.317374   -127.548671
PR24   2809.463150 -24935.178244   4531.582968     54.246047
EOF
